BEIJING 1               
1 28890U 05043A   20118.83486132 -.00000032  00000-0  26995-5 0  9998
2 28890  98.0222 249.1153 0016620 101.5004 258.8068 14.61287302773124
HJ-1A                   
1 33320U 08041A   20118.86683349  .00000114  00000-0  23263-4 0  9999
2 33320  97.7922 172.5702 0025655 234.1172 125.7646 14.77060495627139
HJ-1B                   
1 33321U 08041B   20118.86792506  .00000129  00000-0  25295-4 0  9999
2 33321  97.7998 174.8067 0033318 262.6374  97.1040 14.77221154627138
YAOGAN 4                
1 33446U 08061A   20118.39967485  .00000050  00000-0  14005-4 0  9997
2 33446  97.7220  76.1359 0017030 141.6814 218.5611 14.77022585614293
DEIMOS-1                
1 35681U 09041A   20118.84462791  .00000133  00000-0  28843-4 0  9996
2 35681  97.8183 354.3591 0001351 153.3313 206.7967 14.71831249576948
UK-DMC 2                
1 35683U 09041C   20118.84815870 -.00000029  00000-0  26105-5 0  9993
2 35683  97.7042 324.1277 0001074  88.2898 271.8424 14.71142485576730
RISAT 1                 
1 38248U 12017A   20118.75634695  .00000333  00000-0  24383-4 0  9996
2 38248  97.5678 128.6018 0005722  67.9259 292.2577 15.10051739440980
DMC3-FM1                
1 40715U 15032A   20118.93851910  .00000025  00000-0  11422-4 0  9997
2 40715  97.9391  13.6968 0016632  30.4133 329.8034 14.73686145258214
DMC3-FM2                
1 40716U 15032B   20118.96065343  .00000036  00000-0  13187-4 0  9990
2 40716  97.9416  14.0588 0013996  39.6276 320.5958 14.73691696258226
DMC3-FM3                
1 40717U 15032C   20118.91556467  .00000031  00000-0  12363-4 0  9998
2 40717  97.9425  14.7294 0017576  31.7921 328.4342 14.73697610258211
